NORAD_CAT_ID,OBJECT_NAME,OBJECT_TYPE,EPOCH,MEAN_MOTION,ECCENTRICITY,INCLINATION,RA_OF_ASC_NODE,ARG_OF_PERICENTER,MEAN_ANOMALY,BSTAR,MEAN_MOTION_DOT,MEAN_MOTION_DDOT,TLE_LINE0,TLE_LINE1,TLE_LINE2,SEMIMAJOR_AXIS,PERIOD,APOGEE,PERIGEE,DECAYED
52362.0,STARLINK-3848,PAYLOAD,2024-03-07 04:05:17,15.08840459,0.0001332,53.2163,237.5264,84.6702,275.4442,6.0302e-06,-1.92e-06,0.0,0 STARLINK-3848,1 52362U 22045AH  24067.17033617 -.00000192  00000-0  60302-5 0  9997,2 52362  53.2163 237.5264 0001332  84.6702 275.4442 15.08840459105339,6917.879,95.438,540.665,538.823,0.0
52362.0,STARLINK-3848,PAYLOAD,2024-03-08 03:56:03,15.08837859,9.42e-05,53.2146,233.0662,81.5424,278.5675,0.00021543,3.142e-05,0.0,0 STARLINK-3848,1 52362U 22045AH  24068.16393429  .00003142  00000-0  21543-3 0  9996,2 52362  53.2146 233.0662 0000942  81.5424 278.5675 15.08837859105484,6917.887,95.438,540.404,539.1,0.0
52362.0,STARLINK-3848,PAYLOAD,2024-03-08 19:49:56,15.08837673,0.0001739,53.2156,230.0903,90.1413,269.9778,3.9852e-05,3.46e-06,0.0,0 STARLINK-3848,1 52362U 22045AH  24068.82634278  .00000346  00000-0  39852-4 0  9995,2 52362  53.2156 230.0903 0001739  90.1413 269.9778 15.08837673105582,6917.888,95.438,540.956,538.549,0.0
52362.0,STARLINK-3848,PAYLOAD,2024-03-09 10:08:24,15.0882774,0.0001207,53.2163,227.4178,86.2221,273.8909,0.00020355,2.952e-05,0.0,0 STARLINK-3848,1 52362U 22045AH  24069.42250465  .00002952  00000-0  20355-3 0  9996,2 52362  53.2163 227.4178 0001207  86.2221 273.8909 15.08827740105671,6917.918,95.438,540.618,538.948,0.0
52362.0,STARLINK-3848,PAYLOAD,2024-03-10 03:37:38,15.08845997,0.0001199,53.2155,224.1464,80.5923,279.5205,3.7614e-05,3.11e-06,0.0,0 STARLINK-3848,1 52362U 22045AH  24070.15113538  .00000311  00000-0  37614-4 0  9991,2 52362  53.2155 224.1464 0001199  80.5923 279.5205 15.08845997105788,6917.862,95.437,540.557,538.898,0.0
52362.0,STARLINK-3848,PAYLOAD,2024-03-10 09:59:11,15.08837545,0.0001691,53.2157,222.9571,80.7953,279.323,5.727e-05,6.23e-06,0.0,0 STARLINK-3848,1 52362U 22045AH  24070.41610188  .00000623  00000-0  57270-4 0  9999,2 52362  53.2157 222.9571 0001691  80.7953 279.3230 15.08837545105828,6917.888,95.438,540.923,538.583,0.0
52362.0,STARLINK-3848,PAYLOAD,2024-03-10 16:20:43,15.08838043,0.0001718,53.2122,221.7656,86.174,273.9449,5.8339e-05,6.4e-06,0.0,0 STARLINK-3848,1 52362U 22045AH  24070.68106118  .00000640  00000-0  58339-4 0  9997,2 52362  53.2122 221.7656 0001718  86.1740 273.9449 15.08838043105865,6917.886,95.438,540.94,538.563,0.0
52362.0,STARLINK-3848,PAYLOAD,2024-03-11 03:28:25,15.08838677,0.0001545,53.2128,219.684,89.5171,270.5998,5.7869e-05,6.33e-06,0.0,0 STARLINK-3848,1 52362U 22045AH  24071.14474050  .00000633  00000-0  57869-4 0  9991,2 52362  53.2128 219.6840 0001545  89.5171 270.5998 15.08838677105938,6917.884,95.438,540.818,538.681,0.0
52362.0,STARLINK-3848,PAYLOAD,2024-03-11 19:22:16,15.08843175,0.0001521,53.213,216.7099,94.7134,265.4032,6.3932e-05,7.3e-06,0.0,0 STARLINK-3848,1 52362U 22045AH  24071.80713617  .00000730  00000-0  63932-4 0  9995,2 52362  53.2130 216.7099 0001521  94.7134 265.4032 15.08843175106039,6917.871,95.437,540.788,538.683,0.0
52362.0,STARLINK-3848,PAYLOAD,2024-03-12 16:02:17,15.08837441,0.0001581,53.2122,212.8437,93.9857,266.1316,3.4769e-05,2.65e-06,0.0,0 STARLINK-3848,1 52362U 22045AH  24072.66826108  .00000265  00000-0  34769-4 0  9999,2 52362  53.2122 212.8437 0001581  93.9857 266.1316 15.08837441106168,6917.888,95.438,540.847,538.659,0.0
52362.0,STARLINK-3848,PAYLOAD,2024-03-13 09:31:32,15.0883871,0.0001554,53.2124,209.5725,95.5245,264.5925,-3.6935e-06,-3.47e-06,0.0,0 STARLINK-3848,1 52362U 22045AH  24073.39690185 -.00000347  00000-0 -36935-5 0  9995,2 52362  53.2124 209.5725 0001554  95.5245 264.5925 15.08838710106272,6917.884,95.438,540.824,538.674,0.0
52362.0,STARLINK-3848,PAYLOAD,2024-03-13 15:53:04,15.08843512,0.000138,53.2109,208.3833,85.5924,274.5226,4.3916e-05,4.11e-06,0.0,0 STARLINK-3848,1 52362U 22045AH  24073.66185771  .00000411  00000-0  43916-4 0  9991,2 52362  53.2109 208.3833 0001380  85.5924 274.5226 15.08843512106318,6917.87,95.437,540.689,538.78,0.0
52362.0,STARLINK-3848,PAYLOAD,2024-03-14 12:33:05,15.08839935,7.88e-05,53.215,204.5191,63.6955,296.4118,3.0288e-05,1.94e-06,0.0,0 STARLINK-3848,1 52362U 22045AH  24074.52297936  .00000194  00000-0  30288-4 0  9990,2 52362  53.2150 204.5191 0000788  63.6955 296.4118 15.08839935106442,6917.881,95.438,540.291,539.2,0.0
52362.0,STARLINK-3848,PAYLOAD,2024-03-15 17:10:02,15.08839209,0.0001434,53.218,199.17,89.2057,270.9099,1.7874e-05,-3e-08,0.0,0 STARLINK-3848,1 52362U 22045AH  24075.71530437 -.00000003  00000-0  17874-4 0  9994,2 52362  53.2180 199.1700 0001434  89.2057 270.9099 15.08839209106625,6917.883,95.438,540.74,538.756,0.0
52362.0,STARLINK-3848,PAYLOAD,2024-03-16 12:14:40,15.08833189,0.0001611,53.2193,195.601,99.557,260.5604,2.0424e-05,3.7e-07,0.0,0 STARLINK-3848,1 52362U 22045AH  24076.51018998  .00000037  00000-0  20424-4 0  9997,2 52362  53.2193 195.6010 0001611  99.5570 260.5604 15.08833189106746,6917.901,95.438,540.881,538.652,0.0
52362.0,STARLINK-3848,PAYLOAD,2024-03-16 13:50:03,15.08834034,0.000163,53.2182,195.3033,94.8076,265.3102,2.618e-05,1.29e-06,0.0,0 STARLINK-3848,1 52362U 22045AH  24076.57642971  .00000129  00000-0  26180-4 0  9994,2 52362  53.2182 195.3033 0001630  94.8076 265.3102 15.08834034106753,6917.899,95.438,540.891,538.636,0.0
52362.0,STARLINK-3848,PAYLOAD,2024-03-16 15:25:26,15.08835638,0.00015,53.2175,195.0074,74.4646,285.6511,5.0558e-05,5.17e-06,0.0,0 STARLINK-3848,1 52362U 22045AH  24076.64266914  .00000517  00000-0  50558-4 0  9998,2 52362  53.2175 195.0074 0001500  74.4646 285.6511 15.08835638106761,6917.894,95.438,540.796,538.721,0.0
52362.0,STARLINK-3848,PAYLOAD,2024-03-17 13:40:50,15.08844241,0.0001667,53.2175,190.8443,66.8303,293.2864,-4.8914e-05,-1.067e-05,0.0,0 STARLINK-3848,1 52362U 22045AH  24077.57003051 -.00001067  00000-0 -48914-4 0  9998,2 52362  53.2175 190.8443 0001667  66.8303 293.2864 15.08844241106905,6917.867,95.437,540.886,538.579,0.0
52362.0,STARLINK-3848,PAYLOAD,2024-03-17 16:51:36,15.08839878,0.0001517,53.218,190.2442,97.7126,262.4039,0.00012738,1.74e-05,0.0,0 STARLINK-3848,1 52362U 22045AH  24077.70250521  .00001740  00000-0  12738-3 0  9999,2 52362  53.2180 190.2442 0001517  97.7126 262.4039 15.08839878106928,6917.881,95.438,540.795,538.696,0.0
52362.0,STARLINK-3848,PAYLOAD,2024-03-18 11:56:14,15.08843975,0.0001423,53.2171,186.6799,79.4046,280.7106,6.2946e-05,7.14e-06,0.0,0 STARLINK-3848,1 52362U 22045AH  24078.49738643  .00000714  00000-0  62946-4 0  9999,2 52362  53.2171 186.6799 0001423  79.4046 280.7106 15.08843975107041,6917.868,95.437,540.718,538.749,0.0
52362.0,STARLINK-3848,PAYLOAD,2024-03-19 11:47:00,15.08850518,0.0001425,53.2168,182.2214,80.7447,279.3706,4.6441e-05,4.51e-06,0.0,0 STARLINK-3848,1 52362U 22045AH  24079.49098140  .00000451  00000-0  46441-4 0  9991,2 52362  53.2168 182.2214 0001425  80.7447 279.3706 15.08850518107190,6917.848,95.437,540.699,538.727,0.0
52362.0,STARLINK-3848,PAYLOAD,2024-03-19 13:22:23,15.08850517,0.0001474,53.2166,181.9242,95.1545,264.9615,5.6605e-05,6.13e-06,0.0,0 STARLINK-3848,1 52362U 22045AH  24079.55722042  .00000613  00000-0  56605-4 0  9996,2 52362  53.2166 181.9242 0001474  95.1545 264.9615 15.08850517107208,6917.848,95.437,540.733,538.694,0.0
52362.0,STARLINK-3848,PAYLOAD,2024-03-20 10:02:25,15.08834668,0.0001754,53.2189,178.0583,98.2483,261.8708,-3.9251e-05,-9.13e-06,0.0,0 STARLINK-3848,1 52362U 22045AH  24080.41835287 -.00000913  00000-0 -39251-4 0  9992,2 52362  53.2189 178.0583 0001754  98.2483 261.8708 15.08834668107336,6917.897,95.438,540.975,538.548,0.0
52362.0,STARLINK-3848,PAYLOAD,2024-03-20 11:37:48,15.0883503,0.0001812,53.2183,177.7605,103.5737,256.5457,-3.5129e-05,-8.47e-06,0.0,0 STARLINK-3848,1 52362U 22045AH  24080.48459263 -.00000847  00000-0 -35129-4 0  9991,2 52362  53.2183 177.7605 0001812 103.5737 256.5457 15.08835030107345,6917.896,95.438,541.014,538.507,0.0
52362.0,STARLINK-3848,PAYLOAD,2024-03-21 13:03:57,15.0885217,0.0001446,53.2175,173.0028,85.2648,274.8509,8.8219e-05,1.117e-05,0.0,0 STARLINK-3848,1 52362U 22045AH  24081.54441990  .00001117  00000-0  88219-4 0  9994,2 52362  53.2175 173.0028 0001446  85.2648 274.8509 15.08852170107507,6917.843,95.437,540.709,538.708,0.0
52362.0,STARLINK-3848,PAYLOAD,2024-03-22 04:57:49,15.0883972,0.0001608,53.2182,170.0311,81.8961,278.2214,0.00018133,2.599e-05,0.0,0 STARLINK-3848,1 52362U 22045AH  24082.20682450  .00002599  00000-0  18133-3 0  9998,2 52362  53.2182 170.0311 0001608  81.8961 278.2214 15.08839720107605,6917.881,95.438,540.859,538.634,0.0
52362.0,STARLINK-3848,PAYLOAD,2024-03-22 11:19:21,15.08846693,0.0001694,53.2175,168.8387,96.9108,263.2077,0.00019888,2.879e-05,0.0,0 STARLINK-3848,1 52362U 22045AH  24082.47177926  .00002879  00000-0  19888-3 0  9993,2 52362  53.2175 168.8387 0001694  96.9108 263.2077 15.08846693107642,6917.86,95.437,540.897,538.553,0.0
52362.0,STARLINK-3848,PAYLOAD,2024-03-23 12:45:33,15.08832796,0.0001571,53.2172,164.0832,88.2463,271.8709,-9.8622e-05,-1.857e-05,0.0,0 STARLINK-3848,1 52362U 22045AH  24083.53164254 -.00001857  00000-0 -98622-4 0  9992,2 52362  53.2172 164.0832 0001571  88.2463 271.8709 15.08832796107808,6917.902,95.438,540.854,538.681,0.0
52362.0,STARLINK-3848,PAYLOAD,2024-03-23 14:20:56,15.08835342,0.0001617,53.2173,163.786,103.8354,256.2818,-8.209e-05,-1.594e-05,0.0,0 STARLINK-3848,1 52362U 22045AH  24083.59787973 -.00001594  00000-0 -82090-4 0  9997,2 52362  53.2173 163.7860 0001617 103.8354 256.2818 15.08835342107819,6917.895,95.438,540.878,538.641,0.0
52362.0,STARLINK-3848,PAYLOAD,2024-03-24 12:36:19,15.08856136,0.0001499,53.217,159.6174,93.4686,266.6477,6.9936e-05,8.26e-06,0.0,0 STARLINK-3848,1 52362U 22045AH  24084.52522507  .00000826  00000-0  69936-4 0  9990,2 52362  53.2170 159.6174 0001499  93.4686 266.6477 15.08856136107953,6917.831,95.437,540.733,538.659,0.0
